[{"OBJECT_NAME":"STARLINK-31595","OBJECT_ID":"2024-050V","EPOCH":"2026-03-09T18:50:55.157568","MEAN_MOTION":15.30215116,"ECCENTRICITY":0.00014207,"INCLINATION":53.157,"RA_OF_ASC_NODE":180.5315,"ARG_OF_PERICENTER":96.4959,"MEAN_ANOMALY":263.6204,"EPHEMERIS_TYPE":0,"CLASSIFICATION_TYPE":"U","NORAD_CAT_ID":59273,"ELEMENT_SET_NO":999,"REV_AT_EPOCH":11056,"BSTAR":0.00081891466,"MEAN_MOTION_DOT":0.00023984,"MEAN_MOTION_DDOT":0},{"OBJECT_NAME":"CZ-2C R\/B","OBJECT_ID":"2025-040C","EPOCH":"2026-03-09T20:48:45.699840","MEAN_MOTION":15.35891971,"ECCENTRICITY":0.00146139,"INCLINATION":97.1638,"RA_OF_ASC_NODE":181.5862,"ARG_OF_PERICENTER":64.9841,"MEAN_ANOMALY":295.2919,"EPHEMERIS_TYPE":0,"CLASSIFICATION_TYPE":"U","NORAD_CAT_ID":63127,"ELEMENT_SET_NO":999,"REV_AT_EPOCH":5741,"BSTAR":0.00046093655,"MEAN_MOTION_DOT":0.00016093,"MEAN_MOTION_DDOT":0}]
